[{"OBJECT_NAME":"OBJECT D","OBJECT_ID":"2025-108D","EPOCH":"2026-03-09T23:55:58.918944","MEAN_MOTION":15.17741465,"ECCENTRICITY":0.00119931,"INCLINATION":97.4751,"RA_OF_ASC_NODE":145.8386,"ARG_OF_PERICENTER":357.4422,"MEAN_ANOMALY":2.6748,"EPHEMERIS_TYPE":0,"CLASSIFICATION_TYPE":"U","NORAD_CAT_ID":64090,"ELEMENT_SET_NO":999,"REV_AT_EPOCH":4431,"BSTAR":0.00035350679,"MEAN_MOTION_DOT":7.081e-5,"MEAN_MOTION_DDOT":0},{"OBJECT_NAME":"ICEYE-X61","OBJECT_ID":"2025-276CS","EPOCH":"2026-03-09T17:37:00.817536","MEAN_MOTION":15.18776211,"ECCENTRICITY":0.00020811,"INCLINATION":97.4269,"RA_OF_ASC_NODE":144.0181,"ARG_OF_PERICENTER":344.9229,"MEAN_ANOMALY":15.1943,"EPHEMERIS_TYPE":0,"CLASSIFICATION_TYPE":"U","NORAD_CAT_ID":66754,"ELEMENT_SET_NO":999,"REV_AT_EPOCH":1532,"BSTAR":0.00047624581,"MEAN_MOTION_DOT":9.84e-5,"MEAN_MOTION_DDOT":0}]
